OBJECT_NAME,OBJECT_ID,EPOCH,MEAN_MOTION,ECCENTRICITY,INCLINATION,RA_OF_ASC_NODE,ARG_OF_PERICENTER,MEAN_ANOMALY,EPHEMERIS_TYPE,CLASSIFICATION_TYPE,NORAD_CAT_ID,ELEMENT_SET_NO,REV_AT_EPOCH,BSTAR,MEAN_MOTION_DOT,MEAN_MOTION_DDOT
IONOSFERA-M 2,2024-199B,2026-06-19T14:51:35.627904,14.22758029,.00009453,98.7169,43.6763,37.8711,322.2533,0,U,61736,999,13117,.35436976E-4,.35E-6,0
PRSC-EO1,2025-012A,2026-06-19T15:09:00.772416,15.17633604,.00049417,97.4221,243.0436,241.4639,118.6097,0,U,62725,999,7856,.26535624E-3,.5274E-4,0
BIOMASS,2025-090A,2026-06-18T11:10:04.238112,14.67536694,.0001346,98.0739,356.7637,96.2561,263.8797,0,U,63772,999,6087,.363E-4,.158E-5,0
GOSAT-GW (IBUKI GW),2025-141A,2026-06-19T13:50:09.693312,14.67554519,.00014494,98.0572,107.8546,83.2342,276.9028,0,U,64694,999,5219,.1271892E-4,.24E-6,0
IONOSFERA-M 3,2025-155A,2026-06-19T13:38:51.252000,14.21486782,.00011471,98.6032,132.4137,152.6858,207.4380,0,U,64876,999,4674,.38288283E-4,.41E-6,0
IONOSFERA-M 4,2025-155B,2026-06-19T14:29:01.242240,14.21488990,.00011316,98.6031,132.3651,120.0119,240.1171,0,U,64877,999,4674,.35627101E-4,.35E-6,0
MICROCARB,2025-156A,2026-06-19T11:02:59.647776,14.72327542,.00149923,97.9831,247.5572,264.2805,95.6693,0,U,64899,999,4830,.68667092E-4,.385E-5,0
CO3D 3,2025-156B,2026-06-19T13:22:26.600448,15.20210393,.00016009,97.4328,249.2165,129.0907,231.0471,0,U,64900,999,4989,.16336402E-3,.3471E-4,0
CO3D 4,2025-156C,2026-06-18T20:00:01.358784,15.20208932,.00001122,97.4333,248.5023,3.6734,356.4502,0,U,64901,999,4978,.13216641E-4,.219E-5,0
CO3D 2,2025-156D,2026-06-19T12:34:38.661312,15.20211845,.00015138,97.4328,249.0826,107.0016,253.1386,0,U,64902,999,4988,.15252616E-3,.3237E-4,0
CO3D 1,2025-156E,2026-06-19T12:34:51.909024,15.20211449,.00013499,97.4326,249.0830,113.4467,246.6910,0,U,64903,999,4988,.18922526E-3,.4032E-4,0
PRSC-S1,2025-164A,2026-06-19T15:36:54.453600,15.06475864,.00062211,41.1305,273.9386,0.3756,359.7061,0,U,65055,999,4880,.24164023E-3,.3455E-4,0
SENTINEL-6B,2025-264A,2026-06-19T14:01:20.191008,12.80929984,.00080027,66.0398,130.1996,269.1481,90.8617,0,U,66514,999,2747,.41221649E-4,-.52E-6,0
CAS500-3,2025-274F,2026-06-19T08:47:57.513696,14.88325464,.00068258,97.7445,98.3681,104.6525,255.5449,0,U,66655,999,3047,.11064271E-3,.97E-5,0
CSG-3,2026-001A,2026-06-19T11:51:55.936224,14.82155084,.00013771,97.8888,354.0628,94.9001,265.2370,0,U,67304,999,2480,.36262382E-4,.236E-5,0
PRSC-E03,2026-092A,2026-06-19T10:35:54.562272,15.06678453,.00033142,38.0013,76.3863,23.0547,337.0363,0,U,68835,999,829,.1553473E-3,.2241E-4,0
CAS500-2,2026-100AK,2026-06-19T10:55:44.596128,15.20612584,.00104817,97.4070,68.2709,27.8864,332.2931,0,U,69013,999,715,.25135171E-3,.545E-4,0
